GLOBALSTAR M075         
1 37192U 10054E   25045.65533315 -.00000115  00000+0 -62553-4 0  9992
2 37192  51.9927 194.6171 0000980 103.6650 269.7622 12.62272920660373
GLOBALSTAR M073         
1 37193U 10054F   25045.92998725 -.00000070  00000+0  19032-3 0  9995
2 37193  52.0056 107.5101 0000660 108.4613  71.8077 12.62263255662393
GLOBALSTAR M083         
1 37739U 11033A   25046.48458348 -.00000109  00000+0 -30774-4 0  9994
2 37739  51.9870  54.7155 0000257  78.1466  45.1692 12.62264358631842
GLOBALSTAR M088         
1 37740U 11033B   25045.97400010 -.00000072  00000+0  17635-3 0  9990
2 37740  51.9753 321.8676 0000583  58.2601  23.9276 12.62262863626960
GLOBALSTAR M091         
1 37741U 11033C   25046.40282942 -.00000075  00000+0  16142-3 0  9997
2 37741  51.9993 283.9012 0000726  54.0638 116.8649 12.62264808628062
GLOBALSTAR M085         
1 37742U 11033D   25046.43311649 -.00000106  00000+0 -11425-4 0  9994
2 37742  51.9844 234.9530 0000862  76.2540 292.3230 12.62265482628816
GLOBALSTAR M081         
1 37743U 11033E   25045.94051380 -.00000103  00000+0  25757-5 0  9993
2 37743  51.9933 239.1635 0001065  74.0791  95.8506 12.62260750628409
GLOBALSTAR M089         
1 37744U 11033F   25045.89387270 -.00000111  00000+0 -42696-4 0  9998
2 37744  51.9911 193.5557 0001165 104.4987  32.6991 12.62266219629244
